ALOS (DAICHI)           
1 28931U 06002A   25351.73419158  .00001110  00000+0  19545-3 0  9994
2 28931  98.1098 303.1864 0001361 113.5739 246.5610 14.69501788 61443
H-2A R/B                
1 28932U 06002B   25353.12751143  .00008842  00000+0  46406-3 0  9998
2 28932  98.2321 128.3982 0054657 154.7707 205.6211 15.14694451 82234
RESURS-DK 1             
1 29228U 06021A   25353.24678854  .00001915  00000+0  11683-3 0  9991
2 29228  69.9339  85.0220 0006875 253.8547 106.1863 15.12195361 75361
CZ-4B R/B               
1 29507U 06046C   25353.10600635  .00003660  00000+0  19184-3 0  9998
2 29507  97.5727  33.2276 0033809 184.1703 175.9253 15.15933712 47833
CZ-2C R/B               
1 31114U 07010B   25353.27079844  .00000097  00000+0  63553-4 0  9998
2 31114  98.3976 105.5929 0059364 166.9989 193.2736 14.20212369968307
COSMO-SKYMED 1          
1 31598U 07023A   25353.27705475  .00003308  00000+0  30161-3 0  9990
2 31598  97.8836 178.7190 0001576  86.1612 273.9789 14.95814401  2885
COSMOS 2428             
1 31792U 07029A   25353.25176621  .00000146  00000+0  10398-3 0  9992
2 31792  70.9365  12.2071 0004034  14.2954 345.8280 14.12892072952735
SL-16 R/B               
1 31793U 07029B   25353.25278273  .00000160  00000+0  10788-3 0  9998
2 31793  70.9757 341.4662 0001948 261.9413 186.9891 14.14815719953992
KORONAS-FOTON           
1 33504U 09003A   25353.11697375  .00008018  00000+0  19095-3 0  9997
2 33504  82.4305 359.4970 0013416  88.5597 271.7186 15.41322933933328
CZ-2C R/B               
1 37731U 11030B   25352.87726738  .00001112  00000+0  14761-3 0  9997
2 37731  97.8421 306.8482 0051360 253.0722 166.9203 14.80920600778134
H-2A R/B                
1 38341U 12025E   25353.00036261  .00001790  00000+0  16908-3 0  9998
2 38341  98.4605 308.7133 0044146 215.4721 144.3559 14.94485730736168
SHIJIAN-16 (SJ-16)      
1 39358U 13057A   25353.30776439  .00000597  00000+0  61650-4 0  9993
2 39358  74.9727 337.2272 0017802 304.5414  55.4093 14.91998856659513
