CCSDS_OMM_VERS = 2.0
CREATION_DATE  = 
ORIGINATOR     = 

OBJECT_NAME    = ALOS (DAICHI)
OBJECT_ID      = 2006-002A
CENTER_NAME    = EARTH
REF_FRAME      = TEME
TIME_SYSTEM    = UTC
MEAN_ELEMENT_THEORY = SGP/SGP4

EPOCH          = 2025-12-17T17:37:14.152512
MEAN_MOTION    = 14.69501788
ECCENTRICITY   = .00013612
INCLINATION    = 98.1098
RA_OF_ASC_NODE = 303.1864
ARG_OF_PERICENTER = 113.5739
MEAN_ANOMALY   = 246.5610

EPHEMERIS_TYPE = 0
CLASSIFICATION_TYPE = U
NORAD_CAT_ID   = 28931
ELEMENT_SET_NO = 999
REV_AT_EPOCH   = 6144
BSTAR          = .19545051E-3
MEAN_MOTION_DOT = .111E-4
MEAN_MOTION_DDOT = 0

CCSDS_OMM_VERS = 2.0
CREATION_DATE  = 
ORIGINATOR     = 

OBJECT_NAME    = H-2A R/B
OBJECT_ID      = 2006-002B
CENTER_NAME    = EARTH
REF_FRAME      = TEME
TIME_SYSTEM    = UTC
MEAN_ELEMENT_THEORY = SGP/SGP4

EPOCH          = 2025-12-19T03:03:36.987552
MEAN_MOTION    = 15.14694451
ECCENTRICITY   = .0054657
INCLINATION    = 98.2321
RA_OF_ASC_NODE = 128.3982
ARG_OF_PERICENTER = 154.7707
MEAN_ANOMALY   = 205.6211

EPHEMERIS_TYPE = 0
CLASSIFICATION_TYPE = U
NORAD_CAT_ID   = 28932
ELEMENT_SET_NO = 999
REV_AT_EPOCH   = 8223
BSTAR          = .46406324E-3
MEAN_MOTION_DOT = .8842E-4
MEAN_MOTION_DDOT = 0

CCSDS_OMM_VERS = 2.0
CREATION_DATE  = 
ORIGINATOR     = 

OBJECT_NAME    = RESURS-DK 1
OBJECT_ID      = 2006-021A
CENTER_NAME    = EARTH
REF_FRAME      = TEME
TIME_SYSTEM    = UTC
MEAN_ELEMENT_THEORY = SGP/SGP4

EPOCH          = 2025-12-19T05:55:22.529856
MEAN_MOTION    = 15.12195361
ECCENTRICITY   = .00068759
INCLINATION    = 69.9339
RA_OF_ASC_NODE = 85.0220
ARG_OF_PERICENTER = 253.8547
MEAN_ANOMALY   = 106.1863

EPHEMERIS_TYPE = 0
CLASSIFICATION_TYPE = U
NORAD_CAT_ID   = 29228
ELEMENT_SET_NO = 999
REV_AT_EPOCH   = 7536
BSTAR          = .11683475E-3
MEAN_MOTION_DOT = .1915E-4
MEAN_MOTION_DDOT = 0

CCSDS_OMM_VERS = 2.0
CREATION_DATE  = 
ORIGINATOR     = 

OBJECT_NAME    = CZ-4B R/B
OBJECT_ID      = 2006-046C
CENTER_NAME    = EARTH
REF_FRAME      = TEME
TIME_SYSTEM    = UTC
MEAN_ELEMENT_THEORY = SGP/SGP4

EPOCH          = 2025-12-19T02:32:38.948640
MEAN_MOTION    = 15.15933712
ECCENTRICITY   = .00338092
INCLINATION    = 97.5727
RA_OF_ASC_NODE = 33.2276
ARG_OF_PERICENTER = 184.1703
MEAN_ANOMALY   = 175.9253

EPHEMERIS_TYPE = 0
CLASSIFICATION_TYPE = U
NORAD_CAT_ID   = 29507
ELEMENT_SET_NO = 999
REV_AT_EPOCH   = 4783
BSTAR          = .19183623E-3
MEAN_MOTION_DOT = .366E-4
MEAN_MOTION_DDOT = 0

CCSDS_OMM_VERS = 2.0
CREATION_DATE  = 
ORIGINATOR     = 

OBJECT_NAME    = CZ-2C R/B
OBJECT_ID      = 2007-010B
CENTER_NAME    = EARTH
REF_FRAME      = TEME
TIME_SYSTEM    = UTC
MEAN_ELEMENT_THEORY = SGP/SGP4

EPOCH          = 2025-12-19T06:29:56.985216
MEAN_MOTION    = 14.20212369
ECCENTRICITY   = .00593642
INCLINATION    = 98.3976
RA_OF_ASC_NODE = 105.5929
ARG_OF_PERICENTER = 166.9989
MEAN_ANOMALY   = 193.2736

EPHEMERIS_TYPE = 0
CLASSIFICATION_TYPE = U
NORAD_CAT_ID   = 31114
ELEMENT_SET_NO = 999
REV_AT_EPOCH   = 96830
BSTAR          = .63553158E-4
MEAN_MOTION_DOT = .97E-6
MEAN_MOTION_DDOT = 0

CCSDS_OMM_VERS = 2.0
CREATION_DATE  = 
ORIGINATOR     = 

OBJECT_NAME    = COSMO-SKYMED 1
OBJECT_ID      = 2007-023A
CENTER_NAME    = EARTH
REF_FRAME      = TEME
TIME_SYSTEM    = UTC
MEAN_ELEMENT_THEORY = SGP/SGP4

EPOCH          = 2025-12-19T06:38:57.530400
MEAN_MOTION    = 14.95814401
ECCENTRICITY   = .00015764
INCLINATION    = 97.8836
RA_OF_ASC_NODE = 178.7190
ARG_OF_PERICENTER = 86.1612
MEAN_ANOMALY   = 273.9789

EPHEMERIS_TYPE = 0
CLASSIFICATION_TYPE = U
NORAD_CAT_ID   = 31598
ELEMENT_SET_NO = 999
REV_AT_EPOCH   = 288
BSTAR          = .30160591E-3
MEAN_MOTION_DOT = .3308E-4
MEAN_MOTION_DDOT = 0

CCSDS_OMM_VERS = 2.0
CREATION_DATE  = 
ORIGINATOR     = 

OBJECT_NAME    = COSMOS 2428
OBJECT_ID      = 2007-029A
CENTER_NAME    = EARTH
REF_FRAME      = TEME
TIME_SYSTEM    = UTC
MEAN_ELEMENT_THEORY = SGP/SGP4

EPOCH          = 2025-12-19T06:02:32.600544
MEAN_MOTION    = 14.12892072
ECCENTRICITY   = .00040342
INCLINATION    = 70.9365
RA_OF_ASC_NODE = 12.2071
ARG_OF_PERICENTER = 14.2954
MEAN_ANOMALY   = 345.8280

EPHEMERIS_TYPE = 0
CLASSIFICATION_TYPE = U
NORAD_CAT_ID   = 31792
ELEMENT_SET_NO = 999
REV_AT_EPOCH   = 95273
BSTAR          = .10397583E-3
MEAN_MOTION_DOT = .146E-5
MEAN_MOTION_DDOT = 0

CCSDS_OMM_VERS = 2.0
CREATION_DATE  = 
ORIGINATOR     = 

OBJECT_NAME    = SL-16 R/B
OBJECT_ID      = 2007-029B
CENTER_NAME    = EARTH
REF_FRAME      = TEME
TIME_SYSTEM    = UTC
MEAN_ELEMENT_THEORY = SGP/SGP4

EPOCH          = 2025-12-19T06:04:00.427872
MEAN_MOTION    = 14.14815719
ECCENTRICITY   = .00019489
INCLINATION    = 70.9757
RA_OF_ASC_NODE = 341.4662
ARG_OF_PERICENTER = 261.9413
MEAN_ANOMALY   = 186.9891

EPHEMERIS_TYPE = 0
CLASSIFICATION_TYPE = U
NORAD_CAT_ID   = 31793
ELEMENT_SET_NO = 999
REV_AT_EPOCH   = 95399
BSTAR          = .10787731E-3
MEAN_MOTION_DOT = .16E-5
MEAN_MOTION_DDOT = 0

CCSDS_OMM_VERS = 2.0
CREATION_DATE  = 
ORIGINATOR     = 

OBJECT_NAME    = KORONAS-FOTON
OBJECT_ID      = 2009-003A
CENTER_NAME    = EARTH
REF_FRAME      = TEME
TIME_SYSTEM    = UTC
MEAN_ELEMENT_THEORY = SGP/SGP4

EPOCH          = 2025-12-19T02:48:26.532000
MEAN_MOTION    = 15.41322933
ECCENTRICITY   = .00134168
INCLINATION    = 82.4305
RA_OF_ASC_NODE = 359.4970
ARG_OF_PERICENTER = 88.5597
MEAN_ANOMALY   = 271.7186

EPHEMERIS_TYPE = 0
CLASSIFICATION_TYPE = U
NORAD_CAT_ID   = 33504
ELEMENT_SET_NO = 999
REV_AT_EPOCH   = 93332
BSTAR          = .19094569E-3
MEAN_MOTION_DOT = .8018E-4
MEAN_MOTION_DDOT = 0

CCSDS_OMM_VERS = 2.0
CREATION_DATE  = 
ORIGINATOR     = 

OBJECT_NAME    = CZ-2C R/B
OBJECT_ID      = 2011-030B
CENTER_NAME    = EARTH
REF_FRAME      = TEME
TIME_SYSTEM    = UTC
MEAN_ELEMENT_THEORY = SGP/SGP4

EPOCH          = 2025-12-18T21:03:15.901632
MEAN_MOTION    = 14.80920600
ECCENTRICITY   = .00513602
INCLINATION    = 97.8421
RA_OF_ASC_NODE = 306.8482
ARG_OF_PERICENTER = 253.0722
MEAN_ANOMALY   = 166.9203

EPHEMERIS_TYPE = 0
CLASSIFICATION_TYPE = U
NORAD_CAT_ID   = 37731
ELEMENT_SET_NO = 999
REV_AT_EPOCH   = 77813
BSTAR          = .14760613E-3
MEAN_MOTION_DOT = .1112E-4
MEAN_MOTION_DDOT = 0

CCSDS_OMM_VERS = 2.0
CREATION_DATE  = 
ORIGINATOR     = 

OBJECT_NAME    = H-2A R/B
OBJECT_ID      = 2012-025E
CENTER_NAME    = EARTH
REF_FRAME      = TEME
TIME_SYSTEM    = UTC
MEAN_ELEMENT_THEORY = SGP/SGP4

EPOCH          = 2025-12-19T00:00:31.329504
MEAN_MOTION    = 14.94485730
ECCENTRICITY   = .00441469
INCLINATION    = 98.4605
RA_OF_ASC_NODE = 308.7133
ARG_OF_PERICENTER = 215.4721
MEAN_ANOMALY   = 144.3559

EPHEMERIS_TYPE = 0
CLASSIFICATION_TYPE = U
NORAD_CAT_ID   = 38341
ELEMENT_SET_NO = 999
REV_AT_EPOCH   = 73616
BSTAR          = .16908342E-3
MEAN_MOTION_DOT = .179E-4
MEAN_MOTION_DDOT = 0

CCSDS_OMM_VERS = 2.0
CREATION_DATE  = 
ORIGINATOR     = 

OBJECT_NAME    = SHIJIAN-16 (SJ-16)
OBJECT_ID      = 2013-057A
CENTER_NAME    = EARTH
REF_FRAME      = TEME
TIME_SYSTEM    = UTC
MEAN_ELEMENT_THEORY = SGP/SGP4

EPOCH          = 2025-12-19T07:23:10.843296
MEAN_MOTION    = 14.91998856
ECCENTRICITY   = .00178021
INCLINATION    = 74.9727
RA_OF_ASC_NODE = 337.2272
ARG_OF_PERICENTER = 304.5414
MEAN_ANOMALY   = 55.4093

EPHEMERIS_TYPE = 0
CLASSIFICATION_TYPE = U
NORAD_CAT_ID   = 39358
ELEMENT_SET_NO = 999
REV_AT_EPOCH   = 65951
BSTAR          = .61649913E-4
MEAN_MOTION_DOT = .597E-5
MEAN_MOTION_DDOT = 0

